IRIDIUM 155             
1 43573U 18061E   24030.56280309  .00000394  00000+0  13347-3 0  9996
2 43573  86.3927  59.6990 0002098  86.5059 273.6376 14.34219925288854
IRIDIUM 154             
1 43574U 18061F   24030.47401097 -.00000046  00000+0 -23647-4 0  9997
2 43574  86.3928  59.8274 0002321  93.0727 267.0734 14.34216970288893
IRIDIUM 163             
1 43575U 18061G   24030.59451472  .00000316  00000+0  10563-3 0  9993
2 43575  86.3927  59.7195 0002292  89.8414 270.3045 14.34216130288886
IRIDIUM 156             
1 43576U 18061H   24030.56914587  .00000282  00000+0  93689-4 0  9995
2 43576  86.3929  59.7361 0001978  96.0387 264.1034 14.34219297288878
IRIDIUM 164             
1 43577U 18061J   24030.55011752  .00000242  00000+0  79307-4 0  9994
2 43577  86.3930  59.7710 0002248  99.8602 260.2848 14.34219214288915
IRIDIUM 159             
1 43578U 18061K   24030.58816959  .00000341  00000+0  11454-3 0  9998
2 43578  86.3927  59.7098 0002340  92.4663 267.6800 14.34221237288883
IRIDIUM 180             
1 43922U 19002A   24030.44814894  .00000603  00000+0  20834-3 0  9991
2 43922  86.4033 356.6513 0008425  41.5342 318.6493 14.34206123264476
IRIDIUM 176             
1 43923U 19002B   24030.39581771  .00001714  00000+0  26793-3 0  9995
2 43923  86.6126 356.7041 0002274  91.7604 268.3873 14.72253853271423
IRIDIUM 168             
1 43924U 19002C   24030.44179362  .00000087  00000+0  23950-4 0  9996
2 43924  86.4002 356.7085 0002247  90.3910 269.7543 14.34217057264456
IRIDIUM 173             
1 43925U 19002D   24030.42910284  .00000260  00000+0  85666-4 0  9996
2 43925  86.3997 356.6384 0002265  89.1041 271.0414 14.34216764264436
IRIDIUM 169             
1 43926U 19002E   24030.50066892  .00000263  00000+0  79563-4 0  9995
2 43926  86.4218  28.2079 0002314  19.8573 340.2715 14.38600735265334
IRIDIUM 172             
1 43927U 19002F   24030.42276588  .00000165  00000+0  51701-4 0  9997
2 43927  86.3997 356.6458 0002256  87.0241 273.1213 14.34217360264443
IRIDIUM 175             
1 43928U 19002G   24030.32192860  .00001747  00000+0  27316-3 0  9998
2 43928  86.1546 337.7385 0002355  83.2601 276.8884 14.72249207271404
IRIDIUM 171             
1 43929U 19002H   24030.40372841  .00000474  00000+0  16211-3 0  9995
2 43929  86.3978 356.8695 0001997 106.2874 253.8542 14.34215147264436
IRIDIUM 170             
1 43930U 19002J   24030.40204290  .00001711  00000+0  26743-3 0  9995
2 43930  86.6127 356.7062 0002454  91.2040 268.9458 14.72256904271430
IRIDIUM 167             
1 43931U 19002K   24030.39739205  .00000485  00000+0  16610-3 0  9992
2 43931  86.3999 356.6717 0002193  91.3775 268.7672 14.34219022264433
IRIDIUM 181             
1 56726U 23068S   24030.54331284  .00000260  00000+0  70897-4 0  9996
2 56726  86.8604  43.5969 0001937 105.4830 254.6586 14.43570767 37131
IRIDIUM 177             
1 56727U 23068T   24030.50672394  .00002324  00000+0  30227-3 0  9998
2 56727  86.1979  21.1833 0002637  93.5180 266.6343 14.80243087 37862
IRIDIUM 174             
1 56728U 23068U   24030.50136085  .00002358  00000+0  30675-3 0  9995
2 56728  86.1985  21.2783 0002536  92.2391 267.9121 14.80236544 37861
IRIDIUM 178             
1 56729U 23068V   24030.49601519  .00000887  00000+0  11332-3 0  9997
2 56729  86.5768  32.1670 0002603  96.2421 263.9097 14.80211697 37864
IRIDIUM 179             
1 56730U 23068W   24030.49060331  .00000874  00000+0  11166-3 0  9991
2 56730  86.6775  34.5557 0002281  95.5388 264.6094 14.80204775 37865
